XRISM                   
1 57800U 23137A   24234.03937797  .00010868  00000+0  79860-3 0  9991
2 57800  31.0024 319.5396 0009946 130.4184 229.7320 15.02185180 52448
